NORAD_CAT_ID,OBJECT_NAME,OBJECT_TYPE,EPOCH,MEAN_MOTION,ECCENTRICITY,INCLINATION,RA_OF_ASC_NODE,ARG_OF_PERICENTER,MEAN_ANOMALY,BSTAR,MEAN_MOTION_DOT,MEAN_MOTION_DDOT,TLE_LINE0,TLE_LINE1,TLE_LINE2,SEMIMAJOR_AXIS,PERIOD,APOGEE,PERIGEE,DECAYED
53291.0,STARLINK-4166,PAYLOAD,2024-03-25 20:35:56,15.08836755,0.0001592,53.216,143.4262,86.3563,273.7612,0.0011037,0.00017319,0.0,0 STARLINK-4166,1 53291U 22086BB  24085.85829308  .00017319  00000-0  11037-2 0  9995,2 53291  53.2160 143.4262 0001592  86.3563 273.7612 15.08836755 93333,6917.89,95.438,540.857,538.654,0.0
53291.0,STARLINK-4166,PAYLOAD,2024-03-26 12:29:48,15.08826712,0.0001677,53.2158,140.453,97.4024,262.7158,0.00037337,5.657e-05,0.0,0 STARLINK-4166,1 53291U 22086BB  24086.52070272  .00005657  00000-0  37337-3 0  9992,2 53291  53.2158 140.4530 0001677  97.4024 262.7158 15.08826712 93430,6917.921,95.438,540.946,538.626,0.0
53291.0,STARLINK-4166,PAYLOAD,2024-03-26 20:26:44,15.08837738,0.0001658,53.2158,138.966,97.0947,263.0234,0.00053354,8.213e-05,0.0,0 STARLINK-4166,1 53291U 22086BB  24086.85190246  .00008213  00000-0  53354-3 0  9990,2 53291  53.2158 138.9660 0001658  97.0947 263.0234 15.08837738 93647,6917.887,95.438,540.899,538.605,0.0
53291.0,STARLINK-4166,PAYLOAD,2024-03-27 12:20:34,15.08872135,0.0001502,53.2143,135.9921,94.1134,266.003,0.0012278,0.00019324,0.0,0 STARLINK-4166,1 53291U 22086BB  24087.51429373  .00019324  00000-0  12278-2 0  9994,2 53291  53.2143 135.9921 0001502  94.1134 266.0030 15.08872135 93582,6917.782,95.436,540.686,538.608,0.0
53291.0,STARLINK-4166,PAYLOAD,2024-03-28 12:11:21,15.08860479,0.0001387,53.2145,131.5309,102.3611,257.7536,0.00068514,0.00010639,0.0,0 STARLINK-4166,1 53291U 22086BB  24088.50788946  .00010639  00000-0  68514-3 0  9993,2 53291  53.2145 131.5309 0001387 102.3611 257.7536 15.08860479 93732,6917.818,95.436,540.642,538.723,0.0
53291.0,STARLINK-4166,PAYLOAD,2024-03-28 20:08:17,15.08843335,0.0001672,53.2155,130.0393,109.4955,250.6218,0.00040471,6.159e-05,0.0,0 STARLINK-4166,1 53291U 22086BB  24088.83909006  .00006159  00000-0  40471-3 0  9995,2 53291  53.2155 130.0393 0001672 109.4955 250.6218 15.08843335 93782,6917.87,95.437,540.892,538.579,0.0
53291.0,STARLINK-4166,PAYLOAD,2024-03-29 08:51:22,15.08841258,0.0001653,53.2155,127.6611,104.3028,255.8148,0.00077758,0.00012109,0.0,0 STARLINK-4166,1 53291U 22086BB  24089.36901365  .00012109  00000-0  77758-3 0  9994,2 53291  53.2155 127.6611 0001653 104.3028 255.8148 15.08841258 93861,6917.877,95.437,540.885,538.598,0.0
53291.0,STARLINK-4166,PAYLOAD,2024-03-29 19:59:03,15.08874599,0.0001902,53.2182,125.579,109.4545,250.6653,0.0013353,0.00021047,0.0,0 STARLINK-4166,1 53291U 22086BB  24089.83268432  .00021047  00000-0  13353-2 0  9998,2 53291  53.2182 125.5790 0001902 109.4545 250.6653 15.08874599 93939,6917.775,95.435,540.955,538.324,0.0
53291.0,STARLINK-4166,PAYLOAD,2024-03-30 11:52:54,15.08857421,0.0001231,53.2148,122.611,79.5462,280.5669,6.0558e-06,-1.91e-06,0.0,0 STARLINK-4166,1 53291U 22086BB  24090.49507573 -.00000191  00000-0  60558-5 0  9994,2 53291  53.2148 122.6110 0001231  79.5462 280.5669 15.08857421 94031,6917.827,95.436,540.544,538.841,0.0
53291.0,STARLINK-4166,PAYLOAD,2024-03-31 05:22:10,15.08830138,0.0001744,53.2154,119.3345,90.4581,269.6611,0.00040981,6.238e-05,0.0,0 STARLINK-4166,1 53291U 22086BB  24091.22372869  .00006238  00000-0  40981-3 0  9997,2 53291  53.2154 119.3345 0001744  90.4581 269.6611 15.08830138 94147,6917.911,95.438,540.982,538.569,0.0
53291.0,STARLINK-4166,PAYLOAD,2024-03-31 08:32:56,15.08829075,0.000155,53.2137,118.7427,87.8856,272.2314,-0.00010727,-1.994e-05,0.0,0 STARLINK-4166,1 53291U 22086BB  24091.35620894 -.00001994  00000-0 -10727-3 0  9996,2 53291  53.2137 118.7427 0001550  87.8856 272.2314 15.08829075 94320,6917.914,95.438,540.851,538.707,0.0
53291.0,STARLINK-4166,PAYLOAD,2024-04-01 11:34:30,15.08836493,0.0001391,53.2151,113.6871,87.811,272.3041,0.00043996,6.72e-05,0.0,0 STARLINK-4166,1 53291U 22086BB  24092.48229932  .00006720  00000-0  43996-3 0  9993,2 53291  53.2151 113.6871 0001391  87.8110 272.3041 15.08836493 94330,6917.891,95.438,540.718,538.794,0.0
53291.0,STARLINK-4166,PAYLOAD,2024-04-02 08:14:31,15.08850837,0.0001398,53.2154,109.8218,89.5643,270.551,0.000464,7.106e-05,0.0,0 STARLINK-4166,1 53291U 22086BB  24093.34341610  .00007106  00000-0  46400-3 0  9999,2 53291  53.2154 109.8218 0001398  89.5643 270.5510 15.08850837 94623,6917.847,95.437,540.679,538.745,0.0
53291.0,STARLINK-4166,PAYLOAD,2024-04-02 17:46:49,15.08846901,0.0001354,53.2155,108.0382,89.4418,270.673,0.00019281,2.783e-05,0.0,0 STARLINK-4166,1 53291U 22086BB  24093.74085536  .00002783  00000-0  19281-3 0  9998,2 53291  53.2155 108.0382 0001354  89.4418 270.6730 15.08846901 94529,6917.859,95.437,540.661,538.788,0.0
53291.0,STARLINK-4166,PAYLOAD,2024-04-03 09:40:41,15.08834304,0.0001487,53.2162,105.0649,91.3179,268.7984,-8.0678e-06,-4.16e-06,0.0,0 STARLINK-4166,1 53291U 22086BB  24094.40326283 -.00000416  00000-0 -80678-5 0  9992,2 53291  53.2162 105.0649 0001487  91.3179 268.7984 15.08834304 94627,6917.898,95.438,540.791,538.734,0.0
53291.0,STARLINK-4166,PAYLOAD,2024-04-03 17:37:37,15.08839641,0.0001482,53.2164,103.5777,87.9828,272.1334,5.4877e-05,5.85e-06,0.0,0 STARLINK-4166,1 53291U 22086BB  24094.73446069  .00000585  00000-0  54877-4 0  9999,2 53291  53.2164 103.5777 0001482  87.9828 272.1334 15.08839641 94831,6917.881,95.438,540.772,538.721,0.0
53291.0,STARLINK-4166,PAYLOAD,2024-04-04 04:45:19,15.08846664,0.0001531,53.2179,101.4963,88.8134,271.3033,9.0067e-05,1.146e-05,0.0,0 STARLINK-4166,1 53291U 22086BB  24095.19813839  .00001146  00000-0  90067-4 0  9998,2 53291  53.2179 101.4963 0001531  88.8134 271.3033 15.08846664 94746,6917.86,95.437,540.784,538.666,0.0
53291.0,STARLINK-4166,PAYLOAD,2024-04-04 07:56:05,15.08847756,0.0001517,53.2176,100.9014,87.9739,272.1427,8.3235e-05,1.037e-05,0.0,0 STARLINK-4166,1 53291U 22086BB  24095.33061698  .00001037  00000-0  83235-4 0  9990,2 53291  53.2176 100.9014 0001517  87.9739 272.1427 15.08847756 94928,6917.857,95.437,540.771,538.672,0.0
53291.0,STARLINK-4166,PAYLOAD,2024-04-04 17:28:24,15.08842482,0.0001565,53.218,99.117,87.1118,273.0053,6.3901e-05,7.29e-06,0.0,0 STARLINK-4166,1 53291U 22086BB  24095.72805989  .00000729  00000-0  63901-4 0  9997,2 53291  53.2180  99.1170 0001565  87.1118 273.0053 15.08842482 94983,6917.873,95.437,540.82,538.655,0.0
53291.0,STARLINK-4166,PAYLOAD,2024-04-05 04:36:06,15.08834663,0.0001458,53.217,97.0353,88.8323,271.2837,0.00011267,1.505e-05,0.0,0 STARLINK-4166,1 53291U 22086BB  24096.19174461  .00001505  00000-0  11267-3 0  9993,2 53291  53.2170  97.0353 0001458  88.8323 271.2837 15.08834663 94891,6917.897,95.438,540.77,538.753,0.0
53291.0,STARLINK-4166,PAYLOAD,2024-04-05 09:22:15,15.08839595,0.0001429,53.2167,96.1431,89.8796,270.236,0.00012768,1.745e-05,0.0,0 STARLINK-4166,1 53291U 22086BB  24096.39046166  .00001745  00000-0  12768-3 0  9998,2 53291  53.2167  96.1431 0001429  89.8796 270.2360 15.08839595 95088,6917.882,95.438,540.735,538.758,0.0
53291.0,STARLINK-4166,PAYLOAD,2024-04-05 17:19:11,15.08836188,0.0001418,53.2164,94.6559,89.5453,270.5702,5.8699e-05,6.46e-06,0.0,0 STARLINK-4166,1 53291U 22086BB  24096.72166554  .00000646  00000-0  58699-4 0  9992,2 53291  53.2164  94.6559 0001418  89.5453 270.5702 15.08836188 95138,6917.892,95.438,540.738,538.776,0.0
53291.0,STARLINK-4166,PAYLOAD,2024-04-06 06:02:17,15.08833614,0.0001352,53.2162,92.2754,93.8917,266.223,0.00014892,2.083e-05,0.0,0 STARLINK-4166,1 53291U 22086BB  24097.25158594  .00002083  00000-0  14892-3 0  9999,2 53291  53.2162  92.2754 0001352  93.8917 266.2230 15.08833614 95057,6917.9,95.438,540.7,538.83,0.0
53291.0,STARLINK-4166,PAYLOAD,2024-04-06 09:13:03,15.08840897,0.0001399,53.2164,91.6805,95.0804,265.0348,2.4735e-05,1.06e-06,0.0,0 STARLINK-4166,1 53291U 22086BB  24097.38406274  .00000106  00000-0  24735-4 0  9996,2 53291  53.2164  91.6805 0001399  95.0804 265.0348 15.08840897 95237,6917.878,95.437,540.71,538.775,0.0
53291.0,STARLINK-4166,PAYLOAD,2024-04-06 17:09:58,15.08842314,0.0001402,53.2168,90.1941,94.3286,265.7866,6.5371e-05,7.53e-06,0.0,0 STARLINK-4166,1 53291U 22086BB  24097.71526067  .00000753  00000-0  65371-4 0  9995,2 53291  53.2168  90.1941 0001402  94.3286 265.7866 15.08842314 95123,6917.873,95.437,540.708,538.768,0.0
53291.0,STARLINK-4166,PAYLOAD,2024-04-07 09:03:49,15.08845129,0.0001425,53.2167,87.22,96.8224,263.293,0.00010876,1.444e-05,0.0,0 STARLINK-4166,1 53291U 22086BB  24098.37765776  .00001444  00000-0  10876-3 0  9997,2 53291  53.2167  87.2200 0001425  96.8224 263.2930 15.08845129 95381,6917.865,95.437,540.716,538.744,0.0
53291.0,STARLINK-4166,PAYLOAD,2024-04-08 05:43:50,15.08840119,0.0001397,53.2171,83.354,98.1342,261.9809,8.3301e-05,1.038e-05,0.0,0 STARLINK-4166,1 53291U 22086BB  24099.23878235  .00001038  00000-0  83301-4 0  9991,2 53291  53.2171  83.3540 0001397  98.1342 261.9809 15.08840119 95355,6917.88,95.438,540.711,538.779,0.0
53291.0,STARLINK-4166,PAYLOAD,2024-04-08 21:37:42,15.08833572,0.000139,53.2169,80.3809,97.6314,262.4836,-8.3451e-06,-4.21e-06,0.0,0 STARLINK-4166,1 53291U 22086BB  24099.90119029 -.00000421  00000-0 -83451-5 0  9998,2 53291  53.2169  80.3809 0001390  97.6314 262.4836 15.08833572 95455,6917.9,95.438,540.727,538.803,0.0
53291.0,STARLINK-4166,PAYLOAD,2024-04-09 05:34:39,15.08818529,0.0001348,53.2174,78.8941,89.6045,270.5101,-0.00014736,-2.631e-05,0.0,0 STARLINK-4166,1 53291U 22086BB  24100.23240679 -.00002631  00000-0 -14736-3 0  9996,2 53291  53.2174  78.8941 0001348  89.6045 270.5101 15.08818529 95501,6917.946,95.439,540.744,538.878,0.0
53291.0,STARLINK-4166,PAYLOAD,2024-04-09 15:06:58,15.08823238,0.0001341,53.2174,77.1089,87.8838,272.2308,-8.048e-05,-1.568e-05,0.0,0 STARLINK-4166,1 53291U 22086BB  24100.62984656 -.00001568  00000-0 -80480-4 0  9997,2 53291  53.2174  77.1089 0001341  87.8838 272.2308 15.08823238 95566,6917.932,95.439,540.724,538.869,0.0
